NORAD_CAT_ID,OBJECT_NAME,OBJECT_TYPE,EPOCH,MEAN_MOTION,ECCENTRICITY,INCLINATION,RA_OF_ASC_NODE,ARG_OF_PERICENTER,MEAN_ANOMALY,BSTAR,MEAN_MOTION_DOT,MEAN_MOTION_DDOT,TLE_LINE0,TLE_LINE1,TLE_LINE2,SEMIMAJOR_AXIS,PERIOD,APOGEE,PERIGEE,DECAYED
53612.0,STARLINK-4658,PAYLOAD,2023-09-08 16:48:54,15.08849487,9.83e-05,53.2174,12.7593,109.9871,250.1227,-0.00031184,-5.248e-05,0.0,0 STARLINK-4658,1 53612U 22104AA  23251.70063561 -.00005248  00000-0 -31184-3 0  9998,2 53612  53.2174  12.7593 0000983 109.9871 250.1227 15.08849487 57233,6917.851,95.437,540.396,539.036,0.0
53612.0,STARLINK-4658,PAYLOAD,2023-09-09 08:42:47,15.08838324,0.0001085,53.2176,9.786,97.296,262.8156,0.00036829,5.578e-05,0.0,0 STARLINK-4658,1 53612U 22104AA  23252.36305011  .00005578  00000-0  36829-3 0  9995,2 53612  53.2176   9.7860 0001085  97.2960 262.8156 15.08838324 57330,6917.886,95.438,540.501,539.0,0.0
53612.0,STARLINK-4658,PAYLOAD,2023-09-09 13:28:56,15.08843899,0.0001142,53.218,8.8949,100.3716,259.7405,0.00042165,6.43e-05,0.0,0 STARLINK-4658,1 53612U 22104AA  23252.56176891  .00006430  00000-0  42165-3 0  9997,2 53612  53.2180   8.8949 0001142 100.3716 259.7405 15.08843899 57933,6917.868,95.437,540.523,538.943,0.0
53612.0,STARLINK-4658,PAYLOAD,2023-09-10 13:19:43,15.08840462,0.0001315,53.2191,4.4349,97.3588,262.7553,6.549e-05,7.55e-06,0.0,0 STARLINK-4658,1 53612U 22104AA  23253.55536935  .00000755  00000-0  65490-4 0  9997,2 53612  53.2191   4.4349 0001315  97.3588 262.7553 15.08840462 58083,6917.879,95.438,540.654,538.834,0.0
53612.0,STARLINK-4658,PAYLOAD,2023-09-10 14:55:06,15.08844768,0.0001206,53.2184,4.1368,85.6574,274.4556,0.00016219,2.295e-05,0.0,0 STARLINK-4658,1 53612U 22104AA  23253.62160757  .00002295  00000-0  16219-3 0  9995,2 53612  53.2184   4.1368 0001206  85.6574 274.4556 15.08844768 57521,6917.866,95.437,540.565,538.897,0.0
53612.0,STARLINK-4658,PAYLOAD,2023-09-11 06:48:58,15.08838524,0.0001208,53.2179,1.1623,76.7837,283.329,7.6324e-06,-1.66e-06,0.0,0 STARLINK-4658,1 53612U 22104AA  23254.28401097 -.00000166  00000-0  76324-5 0  9994,2 53612  53.2179   1.1623 0001208  76.7837 283.3290 15.08838524 57629,6917.885,95.438,540.586,538.914,0.0
53612.0,STARLINK-4658,PAYLOAD,2023-09-11 13:10:31,15.08838163,0.0001479,53.2183,359.9748,63.3084,296.8059,0.00012461,1.696e-05,0.0,0 STARLINK-4658,1 53612U 22104AA  23254.54897321  .00001696  00000-0  12461-3 0  9990,2 53612  53.2183 359.9748 0001479  63.3084 296.8059 15.08838163 58231,6917.886,95.438,540.774,538.728,0.0
53612.0,STARLINK-4658,PAYLOAD,2023-09-12 13:01:18,15.08845558,0.000131,53.2176,355.5122,80.5936,279.5205,0.00014521,2.024e-05,0.0,0 STARLINK-4658,1 53612U 22104AA  23255.54256981  .00002024  00000-0  14521-3 0  9997,2 53612  53.2176 355.5122 0001310  80.5936 279.5205 15.08845558 58385,6917.863,95.437,540.635,538.822,0.0
53612.0,STARLINK-4658,PAYLOAD,2023-09-13 12:52:04,15.08855507,0.0001526,53.2178,351.0544,78.4118,281.7045,0.00035658,5.394e-05,0.0,0 STARLINK-4658,1 53612U 22104AA  23256.53616471  .00005394  00000-0  35658-3 0  9998,2 53612  53.2178 351.0544 0001526  78.4118 281.7045 15.08855507 58532,6917.833,95.437,540.754,538.642,0.0
53612.0,STARLINK-4658,PAYLOAD,2023-09-13 23:59:46,15.08843281,0.0001356,53.217,348.9718,90.7086,269.4062,6.5659e-05,7.57e-06,0.0,0 STARLINK-4658,1 53612U 22104AA  23256.99984710  .00000757  00000-0  65659-4 0  9995,2 53612  53.2170 348.9718 0001356  90.7086 269.4062 15.08843281 58037,6917.87,95.437,540.673,538.797,0.0
53612.0,STARLINK-4658,PAYLOAD,2023-09-14 09:32:06,15.08815726,0.0001432,53.2184,347.1887,92.0991,268.0165,-0.00039897,-6.628e-05,0.0,0 STARLINK-4658,1 53612U 22104AA  23257.39730124 -.00006628  00000-0 -39897-3 0  9997,2 53612  53.2184 347.1887 0001432  92.0991 268.0165 15.08815726 58093,6917.955,95.439,540.81,538.829,0.0
53612.0,STARLINK-4658,PAYLOAD,2023-09-14 12:42:53,15.08817597,0.0001485,53.2179,346.593,100.9105,259.2055,-0.0003184,-5.349e-05,0.0,0 STARLINK-4658,1 53612U 22104AA  23257.52978208 -.00005349  00000-0 -31840-3 0  9998,2 53612  53.2179 346.5930 0001485 100.9105 259.2055 15.08817597 58686,6917.949,95.439,540.841,538.787,0.0
53612.0,STARLINK-4658,PAYLOAD,2023-09-15 04:36:45,15.08821355,0.0001682,53.2195,343.6153,134.143,225.9701,-5.5501e-06,-3.76e-06,0.0,0 STARLINK-4658,1 53612U 22104AA  23258.19218832 -.00000376  00000-0 -55501-5 0  9999,2 53612  53.2195 343.6153 0001682 134.1430 225.9701 15.08821355 58212,6917.937,95.439,540.966,538.639,0.0
53612.0,STARLINK-4658,PAYLOAD,2023-09-15 09:22:54,15.08836322,0.0001566,53.2192,342.726,121.4703,238.6442,0.00038882,5.905e-05,0.0,0 STARLINK-4658,1 53612U 22104AA  23258.39090410  .00005905  00000-0  38882-3 0  9993,2 53612  53.2192 342.7260 0001566 121.4703 238.6442 15.08836322 58247,6917.892,95.438,540.84,538.673,0.0
53612.0,STARLINK-4658,PAYLOAD,2023-09-15 10:58:17,15.088369,0.0001506,53.2192,342.4291,120.1617,239.9524,0.00080875,0.00012606,0.0,0 STARLINK-4658,1 53612U 22104AA  23258.45714694  .00012606  00000-0  80875-3 0  9992,2 53612  53.2192 342.4291 0001506 120.1617 239.9524 15.08836900 58823,6917.89,95.438,540.797,538.713,0.0
53612.0,STARLINK-4658,PAYLOAD,2023-09-16 12:24:27,15.08855537,0.0001432,53.2187,337.6728,109.2009,250.9138,0.00044421,6.792e-05,0.0,0 STARLINK-4658,1 53612U 22104AA  23259.51698116  .00006792  00000-0  44421-3 0  9996,2 53612  53.2187 337.6728 0001432 109.2009 250.9138 15.08855537 58987,6917.833,95.437,540.689,538.707,0.0
53612.0,STARLINK-4658,PAYLOAD,2023-09-17 10:39:50,15.0884855,0.0001411,53.2186,333.5098,100.9261,259.189,0.00010178,1.333e-05,0.0,0 STARLINK-4658,1 53612U 22104AA  23260.44433892  .00001333  00000-0  10178-3 0  9996,2 53612  53.2186 333.5098 0001411 100.9261 259.1890 15.08848550 58552,6917.854,95.437,540.695,538.743,0.0
53612.0,STARLINK-4658,PAYLOAD,2023-09-18 10:30:37,15.08845443,0.000145,53.2186,329.0494,92.0676,268.0482,4.37e-05,4.08e-06,0.0,0 STARLINK-4658,1 53612U 22104AA  23261.43793818  .00000408  00000-0  43700-4 0  9993,2 53612  53.2186 329.0494 0001450  92.0676 268.0482 15.08845443 58707,6917.864,95.437,540.732,538.726,0.0
53612.0,STARLINK-4658,PAYLOAD,2023-09-18 12:06:00,15.0884756,0.0001412,53.2181,328.7514,91.096,269.0194,7.1847e-05,8.56e-06,0.0,0 STARLINK-4658,1 53612U 22104AA  23261.50417674  .00000856  00000-0  71847-4 0  9994,2 53612  53.2181 328.7514 0001412  91.0960 269.0194 15.08847560 59281,6917.857,95.437,540.699,538.745,0.0
53612.0,STARLINK-4658,PAYLOAD,2023-09-19 13:32:10,15.08864384,0.0001418,53.2172,323.9924,90.0352,270.0803,0.00044951,6.878e-05,0.0,0 STARLINK-4658,1 53612U 22104AA  23262.56400616  .00006878  00000-0  44951-3 0  9994,2 53612  53.2172 323.9924 0001418  90.0352 270.0803 15.08864384 58879,6917.806,95.436,540.652,538.69,0.0
53612.0,STARLINK-4658,PAYLOAD,2023-09-20 10:12:10,15.08859919,0.0001635,53.2174,320.1262,92.1419,267.976,0.00022328,3.269e-05,0.0,0 STARLINK-4658,1 53612U 22104AA  23263.42512047  .00003269  00000-0  22328-3 0  9997,2 53612  53.2174 320.1262 0001635  92.1419 267.9760 15.08859919 59004,6917.82,95.436,540.816,538.553,0.0
53612.0,STARLINK-4658,PAYLOAD,2023-09-21 10:02:58,15.08820059,0.0001504,53.2168,315.6658,91.8313,268.2851,-0.00040557,-6.733e-05,0.0,0 STARLINK-4658,1 53612U 22104AA  23264.41873544 -.00006733  00000-0 -40557-3 0  9994,2 53612  53.2168 315.6658 0001504  91.8313 268.2851 15.08820059 59153,6917.941,95.439,540.847,538.766,0.0
53612.0,STARLINK-4658,PAYLOAD,2023-09-22 09:53:46,15.08839723,0.0001465,53.217,311.2052,93.2011,266.9148,0.00057246,8.834e-05,0.0,0 STARLINK-4658,1 53612U 22104AA  23265.41234436  .00008834  00000-0  57246-3 0  9991,2 53612  53.2170 311.2052 0001465  93.2011 266.9148 15.08839723 59302,6917.881,95.438,540.76,538.733,0.0
53612.0,STARLINK-4658,PAYLOAD,2023-09-22 13:04:33,15.08843908,0.0001442,53.217,310.6105,85.9329,274.1828,0.00089913,0.00014052,0.0,0 STARLINK-4658,1 53612U 22104AA  23265.54482668  .00014052  00000-0  89913-3 0  9992,2 53612  53.2170 310.6105 0001442  85.9329 274.1828 15.08843908 59899,6917.868,95.437,540.731,538.736,0.0
53612.0,STARLINK-4658,PAYLOAD,2023-09-23 09:44:33,15.08851481,0.0001524,53.2162,306.7442,101.4727,258.6436,0.00053955,8.312e-05,0.0,0 STARLINK-4658,1 53612U 22104AA  23266.40594355  .00008312  00000-0  53955-3 0  9994,2 53612  53.2162 306.7442 0001524 101.4727 258.6436 15.08851481 59456,6917.845,95.437,540.765,538.656,0.0
53612.0,STARLINK-4658,PAYLOAD,2023-09-24 03:13:48,15.08846632,0.0001944,53.2179,303.4774,101.2509,258.8702,7.3266e-05,8.78e-06,0.0,0 STARLINK-4658,1 53612U 22104AA  23267.13458420  .00000878  00000-0  73266-4 0  9994,2 53612  53.2179 303.4774 0001944 101.2509 258.8702 15.08846632 59560,6917.86,95.437,541.07,538.38,0.0
53612.0,STARLINK-4658,PAYLOAD,2023-09-24 07:59:57,15.08838464,0.0001616,53.2178,302.5856,102.1578,257.9596,-1.2864e-05,-4.93e-06,0.0,0 STARLINK-4658,1 53612U 22104AA  23267.33330591 -.00000493  00000-0 -12864-4 0  9996,2 53612  53.2178 302.5856 0001616 102.1578 257.9596 15.08838464 60165,6917.885,95.438,540.868,538.632,0.0
53612.0,STARLINK-4658,PAYLOAD,2023-09-25 09:26:07,15.08855295,0.0001364,53.2158,297.825,89.6583,270.4566,0.00072335,0.00011248,0.0,0 STARLINK-4658,1 53612U 22104AA  23268.39314319  .00011248  00000-0  72335-3 0  9999,2 53612  53.2158 297.8250 0001364  89.6583 270.4566 15.08855295 59753,6917.834,95.437,540.642,538.755,0.0
53612.0,STARLINK-4658,PAYLOAD,2023-09-25 11:01:30,15.08855166,0.0001416,53.2162,297.5273,90.892,269.2234,0.0006975,0.00010835,0.0,0 STARLINK-4658,1 53612U 22104AA  23268.45938283  .00010835  00000-0  69750-3 0  9996,2 53612  53.2162 297.5273 0001416  90.8920 269.2234 15.08855166 60338,6917.834,95.437,540.679,538.719,0.0
53612.0,STARLINK-4658,PAYLOAD,2023-09-25 18:58:26,15.0884496,0.0001619,53.2154,296.0404,89.4893,270.6285,0.00029328,4.383e-05,0.0,0 STARLINK-4658,1 53612U 22104AA  23268.79058524  .00004383  00000-0  29328-3 0  9992,2 53612  53.2154 296.0404 0001619  89.4893 270.6285 15.08844960 59810,6917.865,95.437,540.85,538.61,0.0
